M2 PATHFINDER           
1 45727U 20037E   26204.08863179  .00002397  00000+0  17405-3 0  9993
2 45727  97.8144  35.7270 0012203  37.2846 322.9225 15.04815314330892
NETSAT-4                
1 46504U 20068U   26204.99012198  .00017868  00000+0  38052-3 0  9998
2 46504  97.8613 216.2212 0005793 164.3736 195.7691 15.44996555321451
NETSAT-3                
1 46505U 20068V   26204.95921629  .00018121  00000+0  40114-3 0  9998
2 46505  97.8663 214.3598 0004962 178.7076 181.4184 15.43851111321351
NETSAT-1                
1 46506U 20068W   26204.44442405  .00012249  00000+0  35865-3 0  9995
2 46506  97.8764 207.6964 0003120 217.4832 142.6193 15.35391814320866
NETSAT-2                
1 46507U 20068X   26204.97515317  .00021153  00000+0  41352-3 0  9999
2 46507  97.8618 216.2436 0003445 176.4264 183.7010 15.47474527321421
GREENCUBE (IO-117)      
1 53109U 22080E   26205.22576404 -.00000003  00000+0  00000+0 0  9997
2 53109  70.1383 285.3666 0009174 281.6416  78.3214  6.42583383 94445
SITRO-AIS 5 (KATYS)     
1 57176U 23091L   26205.28680427  .00014433  00000+0  49509-3 0  9997
2 57176  97.5042 269.5548 0009755 338.8109  21.2726 15.30228415170012
SITRO-AIS 6 (CHIRKIN)   
1 57192U 23091AC  26205.28742623  .00012055  00000+0  46269-3 0  9990
2 57192  97.5050 268.4739 0010256 343.7305  16.3603 15.26572701169944
SITRO-AIS 8 (ANOKHIN)   
1 57193U 23091AD  26205.23720617  .00017484  00000+0  54890-3 0  9995
2 57193  97.5038 271.2484 0008662 333.2887  26.7907 15.33050872170129
SITRO-AIS 7 (FARTUSHNIY)
1 57194U 23091AE  26205.29836894  .00012259  00000+0  47515-3 0  9998
2 57194  97.5046 268.2900 0010224 345.0543  15.0392 15.26244558169939
SITRO-AIS 10 (BURDAEV)  
1 57199U 23091AK  26205.30333452  .00026388  00000+0  66374-3 0  9999
2 57199  97.5062 276.7642 0004415 298.9468  61.1334 15.39915820170476
SITRO-AIS 9 (SHCHUKIN)  
1 57201U 23091AM  26205.27692668  .00025262  00000+0  64659-3 0  9990
2 57201  97.5061 276.4370 0004655 300.0155  60.0628 15.39389732170457
SITRO-AIS 12 (SMIRENNIY)
1 57204U 23091AQ  26205.26046697  .00025120  00000+0  63676-3 0  9998
2 57204  97.5074 276.9108 0004363 291.2394  68.8385 15.39688398170478
SITRO-AIS 11 (SHEFFER)  
1 57208U 23091AU  26205.26335381  .00025694  00000+0  64165-3 0  9993
2 57208  97.5072 277.1844 0004307 290.1812  69.8970 15.40141214170497
SITRO-AIS 25            
1 59066U 24039R   26205.29099750  .00005148  00000+0  39959-3 0  9995
2 59066  95.3886 260.5882 0143703 197.4214 162.2055 14.93688380130267
SITRO-AIS 26            
1 59067U 24039S   26205.29750338  .00005534  00000+0  43148-3 0  9996
2 59067  95.3888 260.4825 0144010 197.9960 161.6139 14.93479694130252
SITRO-AIS 27            
1 59068U 24039T   26205.32424567  .00004822  00000+0  37291-3 0  9994
2 59068  95.3896 260.7902 0143072 196.4295 163.2270 14.93910716130285
SITRO-AIS 28            
1 59071U 24039U   26205.30086241  .00005857  00000+0  45201-3 0  9998
2 59071  95.3892 260.8231 0142992 196.3223 163.3375 14.93940872130284
GRBBETA                 
1 60237U 24128C   26205.11807489  .00003929  00000+0  27273-3 0  9994
2 60237  61.9899  86.6723 0035834 142.6054 217.7543 15.06857326111835
OOV-CUBE (TUBSAT-30)    
1 60240U 24128F   26205.11607186  .00002064  00000+0  16615-3 0  9997
2 60240  61.9942  96.7912 0039967 142.0849 218.3069 15.02903757111664
ROBUSTA-3A (MEDITERRAN*)
1 60243U 24128J   26205.04012139  .00007530  00000+0  44080-3 0  9990
2 60243  61.9865  77.8790 0036782 135.9091 224.4948 15.12084322111996
LASARSAT                
1 62391U 24247Q   26204.32005667  .00036309  00000+0  67064-3 0  9999
2 62391  44.9747  58.8369 0008725 216.7306 143.2987 15.48476660 88911
CROCUBE                 
1 62394U 24247T   26203.94787493  .00048107  00000+0  81915-3 0  9993
2 62394  44.9710  57.6351 0008728 220.4792 139.5451 15.50668241 88898
FORESAIL-1 PRIME        
1 66778U 25276DS  26205.15342472  .00005078  00000+0  24593-3 0  9994
2 66778  97.4185 277.7514 0002116  22.8394 337.2934 15.18996316 36011
KNACKSAT-2              
1 67683U 98067XZ  26205.27519684  .00073048  00000+0  77998-3 0  9991
2 67683  51.6276 107.4683 0007386 357.1091   2.9860 15.63224662 26075
